[{"OBJECT_NAME":"OBJECT B","OBJECT_ID":"2024-153B","EPOCH":"2026-03-09T23:15:18.632160","MEAN_MOTION":15.30512917,"ECCENTRICITY":0.00113423,"INCLINATION":97.6622,"RA_OF_ASC_NODE":204.9195,"ARG_OF_PERICENTER":149.8438,"MEAN_ANOMALY":210.3457,"EPHEMERIS_TYPE":0,"CLASSIFICATION_TYPE":"U","NORAD_CAT_ID":60746,"ELEMENT_SET_NO":999,"REV_AT_EPOCH":8476,"BSTAR":0.00066193599,"MEAN_MOTION_DOT":0.00019515,"MEAN_MOTION_DDOT":0},{"OBJECT_NAME":"STARLINK-35739","OBJECT_ID":"2025-294Z","EPOCH":"2026-03-09T22:12:36.454752","MEAN_MOTION":15.27596095,"ECCENTRICITY":3.199e-5,"INCLINATION":42.9976,"RA_OF_ASC_NODE":36.8746,"ARG_OF_PERICENTER":229.3795,"MEAN_ANOMALY":130.7029,"EPHEMERIS_TYPE":0,"CLASSIFICATION_TYPE":"U","NORAD_CAT_ID":67053,"ELEMENT_SET_NO":999,"REV_AT_EPOCH":1483,"BSTAR":0.0012524078,"MEAN_MOTION_DOT":0.00034379,"MEAN_MOTION_DDOT":0}]
